PROBA-1                 
1 26958U 01049B   26201.58879745  .00000622  00000+0  44092-4 0  9990
2 26958  97.9602 211.2909 0055143  11.6348 348.6139 15.07623802348654
CUTE-1 (CO-55)          
1 27844U 03031E   26201.47499926  .00000146  00000+0  81840-4 0  9998
2 27844  98.6745 209.6162 0010868  89.1638 271.0786 14.24353565196410
CUBESAT XI-IV (CO-57)   
1 27848U 03031J   26201.48019381  .00000116  00000+0  70115-4 0  9996
2 27848  98.6776 209.3071 0010684 105.6000 254.6359 14.23636281196115
APRIZESAT 4             
1 35684U 09041D   26201.43306361  .00000346  00000+0  47999-4 0  9991
2 35684  98.1399 277.4146 0042554 212.1645 147.6972 14.83918089916293
APRIZESAT 3             
1 35686U 09041F   26201.33474328  .00000122  00000+0  16413-4 0  9990
2 35686  98.2107 356.1560 0060686 318.6931  40.9706 14.96316711921333
PROBA-2                 
1 36037U 09059B   26201.45895227  .00000081  00000+0  29513-4 0  9997
2 36037  98.2463  24.3525 0013392 172.4642 187.6759 14.54874896886368
APRIZESAT 5             
1 37792U 11044E   26201.38068743  .00000404  00000+0  58417-4 0  9994
2 37792  98.2447 135.3639 0050708 255.5406 104.0176 14.81132419803702
APRIZESAT 6             
1 37793U 11044F   26201.28566111  .00000362  00000+0  58661-4 0  9990
2 37793  98.2331 112.4577 0042647 341.9243 132.1235 14.76961193802030
PROBA-V                 
1 39159U 13021A   26200.94203759  .00000022  00000+0  27512-4 0  9997
2 39159  98.3609 177.9355 0005068  48.9154 311.2463 14.23603886685775
APRIZESAT 7             
1 39416U 13066A   26201.62880520  .00000729  00000+0  77365-4 0  9990
2 39416  97.7724 154.3723 0037332 100.0148 260.5286 14.91626724686212
APRIZESAT 8             
1 39425U 13066K   26201.30077650  .00000409  00000+0  50268-4 0  9995
2 39425  97.8231 148.3104 0045941 175.0264 185.1418 14.87700936684599
BUGSAT-1 (TITA)         
1 40014U 14033E   26201.57170251  .00003332  00000+0  17609-3 0  9995
2 40014  98.0426 296.0816 0028973  68.5882 291.8435 15.15914296660892
SAUDISAT 4              
1 40016U 14033G   26201.39208022  .00000252  00000+0  40093-4 0  9997
2 40016  97.7625 346.3867 0043868 326.8983  32.9485 14.79578586650983
APRIZESAT 9             
1 40018U 14033J   26201.60119801  .00000326  00000+0  55139-4 0  9998
2 40018  97.9101 333.9904 0067499  92.9462 267.9474 14.74256649648487
APRIZESAT 10            
1 40019U 14033K   26201.59596655  .00000356  00000+0  63592-4 0  9998
2 40019  97.9687 327.8173 0079157 166.1530 194.1874 14.70914950647162
TECHDEMOSAT-1 (TDS-1)   
1 40076U 14037H   26201.41271578  .00004355  00000+0  24600-3 0  9999
2 40076  98.3836 196.9334 0007310 143.4122 216.7607 15.13720424653258
TECHNOSAT               
1 42829U 17042E   26201.42511787  .00001321  00000+0  96730-4 0  9990
2 42829  97.4324 357.8286 0016931 346.1439  13.9321 15.05127233491704
FLYING LAPTOP           
1 42831U 17042G   26201.64533243  .00001804  00000+0  14413-3 0  9991
2 42831  97.4839 355.9251 0019373  15.2320 344.9484 15.01333580491476
HAWK-A                  
1 43765U 18099H   26201.09407375  .00003914  00000+0  15705-3 0  9995
2 43765  97.3891 252.9053 0035273 166.8572 193.3593 15.25001549418115
HAWK-B                  
1 43794U 18099AN  26201.08949461  .00003298  00000+0  14077-3 0  9999
2 43794  97.3942 252.2461 0031869 184.7615 175.3324 15.23147151418046
HAWK-C                  
1 43799U 18099AT  26201.38817358  .00004860  00000+0  17352-3 0  9991
2 43799  97.3868 254.2731 0040826 165.5943 194.6471 15.28539634418980
SALSAT                  
1 46495U 20068K   26200.97640307  .00004107  00000+0  14329-3 0  9993
2 46495  97.8865 206.0496 0009725 176.0322 184.0997 15.30211220320374
HAWK-2C                 
1 47502U 21006CT  26201.07575980  .00003542  00000+0  10646-3 0  9992
2 47502  97.2260 244.7343 0008660  87.1093 273.1142 15.35024151304544
HAWK-2A                 
1 47505U 21006CW  26201.59941227  .00003760  00000+0  11278-3 0  9997
2 47505  97.2303 245.9448 0008214  89.0815 271.1369 15.35049179304627
HAWK-2B                 
1 47508U 21006CZ  26201.52730118  .00004422  00000+0  13167-3 0  9993
2 47508  97.2173 244.1536 0008749  87.5829 272.6417 15.35180967304615
HAWK-3B                 
1 48931U 21059BE  26201.12896549  .00028153  00000+0  21492-3 0  9996
2 48931  97.6637  41.0194 0004855 181.2561 178.8690 15.72164957283021
HAWK-3C                 
1 48948U 21059BX  26201.51053839  .00030140  00000+0  22971-3 0  9996
2 48948  97.6752  47.1809 0005131 180.3210 179.8050 15.72189959283082
HAWK-3A                 
1 48957U 21059CG  26201.12853685  .00027537  00000+0  21025-3 0  9995
2 48957  97.6701  43.9389 0005049 183.4307 176.6922 15.72164641283020
HAWK-5C                 
1 52754U 22057Y   26201.37868520  .00011509  00000+0  19001-3 0  9998
2 52754  97.6629   3.2201 0002402 320.6579  39.4498 15.52439324231496
HAWK-5B                 
1 52756U 22057AA  26201.37851325  .00011498  00000+0  18984-3 0  9991
2 52756  97.6640   1.5746 0003070 306.5130  53.5839 15.52435528231492
